{
    "type": "FeatureCollection",
    "features": [
        {
            "type": "Feature",
            "properties": {
                "school": "광운대학교"
            },
            "geometry": {
                "type": "Polygon",
                "coordinates": [
                    [
                        [
                            127.059956,
                            37.626584
                        ],
                        [
                            127.052783,
                            37.626168
                        ],
                        [
                            127.046385,
                            37.62215
                        ],
                        [
                            127.04481,
                            37.619656
                        ],
                        [
                            127.049334,
                            37.616587
                        ],
                        [
                            127.053433,
                            37.619418
                        ],
                        [
                            127.054557,
                            37.620091
                        ],
                        [
                            127.05717,
                            37.617999
                        ],
                        [
                            127.061104,
                            37.615701
                        ],
                        [
                            127.064808,
                            37.614769
                        ],
                        [
                            127.064263,
                            37.616816
                        ],
                        [
                            127.06343,
                            37.619932
                        ],
                        [
                            127.059956,
                            37.626584
                        ]
                    ]
                ]
            }
        }
    ]
}